DELTA 2 R/B(1)          
1 20453U 90008B   25339.31897586  .00051911  00000+0  85376-3 0  9998
2 20453  35.6069  68.4238 0112037 110.7477 250.5302 15.44396047911480
COSMOS 2058             
1 20465U 90010A   25339.20557777  .00008149  00000+0  49462-3 0  9998
2 20465  82.4634 140.4417 0008398 305.1903  54.8540 15.10359068927974
SL-14 R/B               
1 20466U 90010B   25339.32579121  .00000838  00000+0  98870-4 0  9994
2 20466  82.5021 356.0107 0018362 249.2906 110.6341 14.83460749914491
SL-14 R/B               
1 20511U 90018B   25339.32043054  .00000916  00000+0  11220-3 0  9994
2 20511  82.5203 311.2997 0017520  46.5104 313.7563 14.82034472908604
HST                     
1 20580U 90037B   25339.28091862  .00012538  00000+0  43905-3 0  9994
2 20580  28.4702 323.2508 0002016 153.2318 206.8381 15.27889575758853
SL-16 R/B               
1 20625U 90046B   25338.82835969  .00000271  00000+0  16443-3 0  9995
2 20625  70.9984 137.1362 0011885  87.8797 272.3686 14.14999306834977
COSMOS 2084             
1 20663U 90055A   25339.25919792  .00005913  00000+0  42427-3 0  9991
2 20663  62.7914 297.4799 0032877 173.7289 186.4229 15.04944158922106
SL-6 R/B(2)             
1 20666U 90055D   25339.11645366  .00004782  00000+0  36725-3 0  9999
2 20666  62.7830 215.3175 0012011 302.7582  57.2358 15.03024289923978
SL-8 R/B                
1 20775U 90078B   25339.25549398  .00034122  00000+0  10565-2 0  9992
2 20775  82.9040 336.0078 0374441 331.0806  27.0102 14.85472876795260
SL-8 R/B                
1 21088U 91006B   25339.28043642  .00000125  00000+0  11085-3 0  9991
2 21088  82.9430 240.2608 0021468 301.9034 174.8450 13.77488841751070
OKEAN-3                 
1 21397U 91039A   25339.29760747  .00006316  00000+0  45399-3 0  9996
2 21397  82.5187  68.2507 0012998 293.0614  66.9241 15.04043066850849
COSMOS 2151             
1 21422U 91042A   25339.28366575  .00003795  00000+0  30551-3 0  9991
2 21422  82.4955 174.6881 0013273  24.3700 335.8148 14.99642651849047
